CCSDS_OMM_VERS = 2.0
CREATION_DATE  = 
ORIGINATOR     = 

OBJECT_NAME    = STARLINK-36635
OBJECT_ID      = 2026-018N
CENTER_NAME    = EARTH
REF_FRAME      = TEME
TIME_SYSTEM    = UTC
MEAN_ELEMENT_THEORY = SGP/SGP4

EPOCH          = 2026-02-09T06:00:02.000160
MEAN_MOTION    = 15.84804335
ECCENTRICITY   = .00015268
INCLINATION    = 97.2782
RA_OF_ASC_NODE = 104.5967
ARG_OF_PERICENTER = 62.5565
MEAN_ANOMALY   = 63.3514

EPHEMERIS_TYPE = 0
CLASSIFICATION_TYPE = U
NORAD_CAT_ID   = 67601
ELEMENT_SET_NO = 999
REV_AT_EPOCH   = 278
BSTAR          = -.85609613E-2
MEAN_MOTION_DOT = -.1714941E-1
MEAN_MOTION_DDOT = 0

CCSDS_OMM_VERS = 2.0
CREATION_DATE  = 
ORIGINATOR     = 

OBJECT_NAME    = STARLINK-36631
OBJECT_ID      = 2026-018P
CENTER_NAME    = EARTH
REF_FRAME      = TEME
TIME_SYSTEM    = UTC
MEAN_ELEMENT_THEORY = SGP/SGP4

EPOCH          = 2026-02-09T06:00:02.000160
MEAN_MOTION    = 15.85290761
ECCENTRICITY   = .00017212
INCLINATION    = 97.2779
RA_OF_ASC_NODE = 104.6019
ARG_OF_PERICENTER = 65.5000
MEAN_ANOMALY   = 72.0009

EPHEMERIS_TYPE = 0
CLASSIFICATION_TYPE = U
NORAD_CAT_ID   = 67602
ELEMENT_SET_NO = 999
REV_AT_EPOCH   = 277
BSTAR          = -.83360682E-2
MEAN_MOTION_DOT = -.1710568E-1
MEAN_MOTION_DDOT = 0

CCSDS_OMM_VERS = 2.0
CREATION_DATE  = 
ORIGINATOR     = 

OBJECT_NAME    = STARLINK-36626
OBJECT_ID      = 2026-018Q
CENTER_NAME    = EARTH
REF_FRAME      = TEME
TIME_SYSTEM    = UTC
MEAN_ELEMENT_THEORY = SGP/SGP4

EPOCH          = 2026-02-09T06:00:02.000160
MEAN_MOTION    = 15.85920411
ECCENTRICITY   = .0001648
INCLINATION    = 97.2772
RA_OF_ASC_NODE = 104.6079
ARG_OF_PERICENTER = 70.5012
MEAN_ANOMALY   = 82.1475

EPHEMERIS_TYPE = 0
CLASSIFICATION_TYPE = U
NORAD_CAT_ID   = 67603
ELEMENT_SET_NO = 999
REV_AT_EPOCH   = 277
BSTAR          = -.80791861E-2
MEAN_MOTION_DOT = -.1709522E-1
MEAN_MOTION_DDOT = 0

CCSDS_OMM_VERS = 2.0
CREATION_DATE  = 
ORIGINATOR     = 

OBJECT_NAME    = STARLINK-36605
OBJECT_ID      = 2026-018R
CENTER_NAME    = EARTH
REF_FRAME      = TEME
TIME_SYSTEM    = UTC
MEAN_ELEMENT_THEORY = SGP/SGP4

EPOCH          = 2026-02-09T06:00:02.000160
MEAN_MOTION    = 15.85752553
ECCENTRICITY   = .00016483
INCLINATION    = 97.2772
RA_OF_ASC_NODE = 104.6057
ARG_OF_PERICENTER = 70.2338
MEAN_ANOMALY   = 78.3942

EPHEMERIS_TYPE = 0
CLASSIFICATION_TYPE = U
NORAD_CAT_ID   = 67604
ELEMENT_SET_NO = 999
REV_AT_EPOCH   = 277
BSTAR          = -.81005917E-2
MEAN_MOTION_DOT = -.1701339E-1
MEAN_MOTION_DDOT = 0

CCSDS_OMM_VERS = 2.0
CREATION_DATE  = 
ORIGINATOR     = 

OBJECT_NAME    = STARLINK-36281
OBJECT_ID      = 2026-018S
CENTER_NAME    = EARTH
REF_FRAME      = TEME
TIME_SYSTEM    = UTC
MEAN_ELEMENT_THEORY = SGP/SGP4

EPOCH          = 2026-02-09T06:00:02.000160
MEAN_MOTION    = 15.85545760
ECCENTRICITY   = .00015242
INCLINATION    = 97.2773
RA_OF_ASC_NODE = 104.6036
ARG_OF_PERICENTER = 78.6132
MEAN_ANOMALY   = 64.8829

EPHEMERIS_TYPE = 0
CLASSIFICATION_TYPE = U
NORAD_CAT_ID   = 67605
ELEMENT_SET_NO = 999
REV_AT_EPOCH   = 282
BSTAR          = -.82512224E-2
MEAN_MOTION_DOT = -.1713561E-1
MEAN_MOTION_DDOT = 0

CCSDS_OMM_VERS = 2.0
CREATION_DATE  = 
ORIGINATOR     = 

OBJECT_NAME    = STARLINK-35843
OBJECT_ID      = 2026-018T
CENTER_NAME    = EARTH
REF_FRAME      = TEME
TIME_SYSTEM    = UTC
MEAN_ELEMENT_THEORY = SGP/SGP4

EPOCH          = 2026-02-09T06:00:02.000160
MEAN_MOTION    = 15.86108567
ECCENTRICITY   = .00016218
INCLINATION    = 97.2767
RA_OF_ASC_NODE = 104.6093
ARG_OF_PERICENTER = 67.8704
MEAN_ANOMALY   = 89.4806

EPHEMERIS_TYPE = 0
CLASSIFICATION_TYPE = U
NORAD_CAT_ID   = 67606
ELEMENT_SET_NO = 999
REV_AT_EPOCH   = 283
BSTAR          = -.79410986E-2
MEAN_MOTION_DOT = -.1697628E-1
MEAN_MOTION_DDOT = 0

CCSDS_OMM_VERS = 2.0
CREATION_DATE  = 
ORIGINATOR     = 

OBJECT_NAME    = STARLINK-36351
OBJECT_ID      = 2026-018U
CENTER_NAME    = EARTH
REF_FRAME      = TEME
TIME_SYSTEM    = UTC
MEAN_ELEMENT_THEORY = SGP/SGP4

EPOCH          = 2026-02-09T06:00:02.000160
MEAN_MOTION    = 15.86283737
ECCENTRICITY   = .0001692
INCLINATION    = 97.2769
RA_OF_ASC_NODE = 104.6114
ARG_OF_PERICENTER = 73.1735
MEAN_ANOMALY   = 88.3226

EPHEMERIS_TYPE = 0
CLASSIFICATION_TYPE = U
NORAD_CAT_ID   = 67607
ELEMENT_SET_NO = 999
REV_AT_EPOCH   = 283
BSTAR          = -.79067497E-2
MEAN_MOTION_DOT = -.1703951E-1
MEAN_MOTION_DDOT = 0

CCSDS_OMM_VERS = 2.0
CREATION_DATE  = 
ORIGINATOR     = 

OBJECT_NAME    = STARLINK-36411
OBJECT_ID      = 2026-018V
CENTER_NAME    = EARTH
REF_FRAME      = TEME
TIME_SYSTEM    = UTC
MEAN_ELEMENT_THEORY = SGP/SGP4

EPOCH          = 2026-02-09T06:00:02.000160
MEAN_MOTION    = 15.86554663
ECCENTRICITY   = .00015222
INCLINATION    = 97.2765
RA_OF_ASC_NODE = 104.6139
ARG_OF_PERICENTER = 74.4410
MEAN_ANOMALY   = 93.3685

EPHEMERIS_TYPE = 0
CLASSIFICATION_TYPE = U
NORAD_CAT_ID   = 67608
ELEMENT_SET_NO = 999
REV_AT_EPOCH   = 282
BSTAR          = -.77898126E-2
MEAN_MOTION_DOT = -.1701417E-1
MEAN_MOTION_DDOT = 0

CCSDS_OMM_VERS = 2.0
CREATION_DATE  = 
ORIGINATOR     = 

OBJECT_NAME    = STARLINK-36312
OBJECT_ID      = 2026-018W
CENTER_NAME    = EARTH
REF_FRAME      = TEME
TIME_SYSTEM    = UTC
MEAN_ELEMENT_THEORY = SGP/SGP4

EPOCH          = 2026-02-09T06:00:02.000160
MEAN_MOTION    = 15.86778658
ECCENTRICITY   = .00015452
INCLINATION    = 97.2766
RA_OF_ASC_NODE = 104.6163
ARG_OF_PERICENTER = 75.2050
MEAN_ANOMALY   = 98.0631

EPHEMERIS_TYPE = 0
CLASSIFICATION_TYPE = U
NORAD_CAT_ID   = 67609
ELEMENT_SET_NO = 999
REV_AT_EPOCH   = 283
BSTAR          = -.76462821E-2
MEAN_MOTION_DOT = -.1690298E-1
MEAN_MOTION_DDOT = 0

CCSDS_OMM_VERS = 2.0
CREATION_DATE  = 
ORIGINATOR     = 

OBJECT_NAME    = STARLINK-36387
OBJECT_ID      = 2026-018X
CENTER_NAME    = EARTH
REF_FRAME      = TEME
TIME_SYSTEM    = UTC
MEAN_ELEMENT_THEORY = SGP/SGP4

EPOCH          = 2026-02-09T06:00:02.000160
MEAN_MOTION    = 15.87063308
ECCENTRICITY   = .00015012
INCLINATION    = 97.2759
RA_OF_ASC_NODE = 104.6187
ARG_OF_PERICENTER = 75.9297
MEAN_ANOMALY   = 103.8750

EPHEMERIS_TYPE = 0
CLASSIFICATION_TYPE = U
NORAD_CAT_ID   = 67610
ELEMENT_SET_NO = 999
REV_AT_EPOCH   = 283
BSTAR          = -.75472923E-2
MEAN_MOTION_DOT = -.1691742E-1
MEAN_MOTION_DDOT = 0

CCSDS_OMM_VERS = 2.0
CREATION_DATE  = 
ORIGINATOR     = 

OBJECT_NAME    = STARLINK-36636
OBJECT_ID      = 2026-018Y
CENTER_NAME    = EARTH
REF_FRAME      = TEME
TIME_SYSTEM    = UTC
MEAN_ELEMENT_THEORY = SGP/SGP4

EPOCH          = 2026-02-09T06:00:02.000160
MEAN_MOTION    = 15.87261062
ECCENTRICITY   = .00015746
INCLINATION    = 97.2758
RA_OF_ASC_NODE = 104.6209
ARG_OF_PERICENTER = 69.5213
MEAN_ANOMALY   = 115.1307

EPHEMERIS_TYPE = 0
CLASSIFICATION_TYPE = U
NORAD_CAT_ID   = 67611
ELEMENT_SET_NO = 999
REV_AT_EPOCH   = 278
BSTAR          = -.74326814E-2
MEAN_MOTION_DOT = -.1683723E-1
MEAN_MOTION_DDOT = 0

CCSDS_OMM_VERS = 2.0
CREATION_DATE  = 
ORIGINATOR     = 

OBJECT_NAME    = STARLINK-36407
OBJECT_ID      = 2026-018Z
CENTER_NAME    = EARTH
REF_FRAME      = TEME
TIME_SYSTEM    = UTC
MEAN_ELEMENT_THEORY = SGP/SGP4

EPOCH          = 2026-02-09T06:00:02.000160
MEAN_MOTION    = 15.87432476
ECCENTRICITY   = .0001562
INCLINATION    = 97.2757
RA_OF_ASC_NODE = 104.6229
ARG_OF_PERICENTER = 70.7597
MEAN_ANOMALY   = 118.0120

EPHEMERIS_TYPE = 0
CLASSIFICATION_TYPE = U
NORAD_CAT_ID   = 67612
ELEMENT_SET_NO = 999
REV_AT_EPOCH   = 288
BSTAR          = -.73502214E-2
MEAN_MOTION_DOT = -.167982E-1
MEAN_MOTION_DDOT = 0

