STARLINK-36635          
1 67601U 26018N   26040.25002315 -.01714941  00000+0 -85610-2 0  9997
2 67601  97.2782 104.5967 0001526  62.5565  63.3514 15.84804335  2782
STARLINK-36631          
1 67602U 26018P   26040.25002315 -.01710568  00000+0 -83361-2 0  9990
2 67602  97.2779 104.6019 0001721  65.5000  72.0009 15.85290761  2770
STARLINK-36626          
1 67603U 26018Q   26040.25002315 -.01709522  00000+0 -80792-2 0  9994
2 67603  97.2772 104.6079 0001648  70.5012  82.1475 15.85920411  2778
STARLINK-36605          
1 67604U 26018R   26040.25002315 -.01701339  00000+0 -81006-2 0  9992
2 67604  97.2772 104.6057 0001648  70.2338  78.3942 15.85752553  2779
STARLINK-36281          
1 67605U 26018S   26040.25002315 -.01713561  00000+0 -82512-2 0  9996
2 67605  97.2773 104.6036 0001524  78.6132  64.8829 15.85545760  2825
STARLINK-35843          
1 67606U 26018T   26040.25002315 -.01697628  00000+0 -79411-2 0  9996
2 67606  97.2767 104.6093 0001621  67.8704  89.4806 15.86108567  2835
STARLINK-36351          
1 67607U 26018U   26040.25002315 -.01703951  00000+0 -79067-2 0  9991
2 67607  97.2769 104.6114 0001692  73.1735  88.3226 15.86283737  2831
STARLINK-36411          
1 67608U 26018V   26040.25002315 -.01701417  00000+0 -77898-2 0  9997
2 67608  97.2765 104.6139 0001522  74.4410  93.3685 15.86554663  2824
STARLINK-36312          
1 67609U 26018W   26040.25002315 -.01690298  00000+0 -76463-2 0  9999
2 67609  97.2766 104.6163 0001545  75.2050  98.0631 15.86778658  2833
STARLINK-36387          
1 67610U 26018X   26040.25002315 -.01691742  00000+0 -75473-2 0  9996
2 67610  97.2759 104.6187 0001501  75.9297 103.8750 15.87063308  2832
STARLINK-36636          
1 67611U 26018Y   26040.25002315 -.01683723  00000+0 -74327-2 0  9994
2 67611  97.2758 104.6209 0001574  69.5213 115.1307 15.87261062  2789
STARLINK-36407          
1 67612U 26018Z   26040.25002315 -.01679820  00000+0 -73502-2 0  9992
2 67612  97.2757 104.6229 0001562  70.7597 118.0120 15.87432476  2882
